BRAC ONNESHA            
1 42823U 98067MX  18100.93919997  .00027838  00000-0  28521-3 0  9994
2 42823  51.6376 342.6645 0004185 289.7968  70.2576 15.64743300 43317
NIGERIAEDUSAT-1         
1 42824U 98067MY  18100.89198718  .00026513  00000-0  27363-3 0  9992
2 42824  51.6383 343.1114 0004074 290.0551  70.0006 15.64587813 43279
CORVUS BC2              
1 42846U 17042X   18101.33317750  .00000292  00000-0  34306-4 0  9991
2 42846  97.6026   6.6005 0011088  63.3216 296.9137 14.91787079 40400
CORVUS BC1              
1 42847U 17042Y   18101.18113447  .00000083  00000-0  13511-4 0  9995
2 42847  97.6026   6.4934 0010742  63.5575 296.6745 14.91886132 40374
SILU-1 (SILKROAD 1)     
1 42903U 17021F   18101.18006022  .00022458  00000-0  19439-3 0  9999
2 42903  42.7794  13.2369 0010357 197.8773 282.3604 15.68639170 39390
MIRATA                  
1 43015U 17073C   18101.40641824  .00001312  00000-0  10832-3 0  9995
2 43015  97.7009  35.2539 0259906 128.7014 233.7754 14.77927667 21277
ASTERIA                 
1 43020U 98067NH  18101.26832798  .00020493  00000-0  27667-3 0  9994
2 43020  51.6421 350.1539 0001652 276.5156  83.5649 15.57748202 22057
DELLINGR (RBLE)         
1 43021U 98067NJ  18101.19149974  .00010340  00000-0  14918-3 0  9999
2 43021  51.6408 351.1324 0001512 268.6295  91.4523 15.56606862 22038
TECHEDSAT 6             
1 43026U 98067NK  18101.23374476  .00296836  00000-0  16867-2 0  9996
2 43026  51.6313 342.3540 0004829 219.2329 140.8322 15.77578030 22050
OSIRIS-3U               
1 43027U 98067NL  18101.06532514  .00033455  00000-0  39791-3 0  9995
2 43027  51.6397 349.5372 0002560 234.4040 125.6715 15.60810517 21927
AEROCUBE 7B             
1 43042U 17071F   18101.15762869  .00004891  00000-0  13724-3 0  9996
2 43042  51.6402   7.9661 0005645  29.7751 330.3553 15.38415288 19280
AEROCUBE 7C             
1 43043U 17071G   18100.89717894  .00004756  00000-0  13383-3 0  9996
2 43043  51.6404   9.2294 0005564  30.1589 329.9714 15.38396466 19217
CHEFSAT                 
1 43044U 17071H   18101.13364702  .00009693  00000-0  25697-3 0  9997
2 43044  51.6410   7.8165 0005628  28.8180 331.3114 15.38977578 19252
ASGARDIA 1              
1 43049U 17071N   18101.27368038  .00005881  00000-0  16223-3 0  9993
2 43049  51.6406   7.2473 0003211  53.1586 306.9692 15.38548443 19260
ISARA                   
1 43050U 17071P   18101.13055301  .00007193  00000-0  19380-3 0  9991
2 43050  51.6408   7.7973 0003183  50.2760 309.8504 15.38915924 19248
FAUNA                   
1 43052U 17071R   18101.13752498  .00005307  00000-0  14693-3 0  9991
2 43052  51.6408   7.8432 0003077  50.5772 309.5484 15.38652018 19245
CORVUS BC3              
1 43118U 18004H   18101.41899340  .00001162  00000-0  53801-4 0  9990
2 43118  97.5401 163.8561 0009874 336.9466  23.1326 15.22121000 13555
MICROMAS-2A             
1 43131U 18004W   18101.13752943  .00002670  00000-0  11818-3 0  9997
2 43131  97.5408 163.6227 0009077 342.2157  17.8760 15.22531276 13514
GOMX4-B                 
1 43196U 18015E   18100.88857888  .00000475  00000-0  22758-4 0  9992
2 43196  97.3359 231.2587 0021067  38.7699 321.5045 15.23455815 10287
GOMX4-A                 
1 43197U 18015F   18101.42788380  .00000419  00000-0  20350-4 0  9998
2 43197  97.3364 231.7828 0020792  37.0547  33.9086 15.23581080 10378
